[{"OBJECT_NAME":"ONEWEB-0026","OBJECT_ID":"2020-008J","EPOCH":"2026-03-09T23:20:47.613984","MEAN_MOTION":13.11417306,"ECCENTRICITY":0.00020481,"INCLINATION":87.887,"RA_OF_ASC_NODE":40.7901,"ARG_OF_PERICENTER":84.5717,"MEAN_ANOMALY":275.5645,"EPHEMERIS_TYPE":0,"CLASSIFICATION_TYPE":"U","NORAD_CAT_ID":45139,"ELEMENT_SET_NO":999,"REV_AT_EPOCH":29810,"BSTAR":0.0013944917,"MEAN_MOTION_DOT":5.07e-6,"MEAN_MOTION_DDOT":0},{"OBJECT_NAME":"FENGYUN 1C DEB","OBJECT_ID":"1999-025CZF","EPOCH":"2026-03-08T20:55:32.220480","MEAN_MOTION":13.65652618,"ECCENTRICITY":0.02740184,"INCLINATION":99.847,"RA_OF_ASC_NODE":45.4115,"ARG_OF_PERICENTER":65.7914,"MEAN_ANOMALY":297.1607,"EPHEMERIS_TYPE":0,"CLASSIFICATION_TYPE":"U","NORAD_CAT_ID":32362,"ELEMENT_SET_NO":999,"REV_AT_EPOCH":92305,"BSTAR":0.0040921687,"MEAN_MOTION_DOT":4.285e-5,"MEAN_MOTION_DDOT":0}]
